[{"OBJECT_NAME":"NEXSAT-1","OBJECT_ID":"2024-024E","EPOCH":"2026-03-09T22:47:24.778176","MEAN_MOTION":15.32166372,"ECCENTRICITY":0.00099795,"INCLINATION":97.3124,"RA_OF_ASC_NODE":144.1918,"ARG_OF_PERICENTER":108.5709,"MEAN_ANOMALY":251.6617,"EPHEMERIS_TYPE":0,"CLASSIFICATION_TYPE":"U","NORAD_CAT_ID":58921,"ELEMENT_SET_NO":999,"REV_AT_EPOCH":11669,"BSTAR":0.00031433612,"MEAN_MOTION_DOT":9.702e-5,"MEAN_MOTION_DDOT":0},{"OBJECT_NAME":"STARLINK-34246","OBJECT_ID":"2025-147Q","EPOCH":"2026-03-09T18:11:38.306400","MEAN_MOTION":15.30206464,"ECCENTRICITY":8.371e-5,"INCLINATION":53.1589,"RA_OF_ASC_NODE":242.3333,"ARG_OF_PERICENTER":75.7231,"MEAN_ANOMALY":284.3863,"EPHEMERIS_TYPE":0,"CLASSIFICATION_TYPE":"U","NORAD_CAT_ID":64769,"ELEMENT_SET_NO":999,"REV_AT_EPOCH":3876,"BSTAR":0.0010520628,"MEAN_MOTION_DOT":0.00030936,"MEAN_MOTION_DDOT":0}]
